OBJECT_NAME,OBJECT_ID,EPOCH,MEAN_MOTION,ECCENTRICITY,INCLINATION,RA_OF_ASC_NODE,ARG_OF_PERICENTER,MEAN_ANOMALY,EPHEMERIS_TYPE,CLASSIFICATION_TYPE,NORAD_CAT_ID,ELEMENT_SET_NO,REV_AT_EPOCH,BSTAR,MEAN_MOTION_DOT,MEAN_MOTION_DDOT
CUBEBUG-2 (LO-74),2013-066AA,2026-06-26T18:37:18.801120,14.93836496,.005745,97.8903,126.7948,357.3533,2.7374,0,U,39440,999,67842,.39049E-3,.422E-4,0
FUNCUBE-1 (AO-73),2013-066AE,2026-06-26T16:02:13.514208,15.09595526,.0036613,97.8272,149.3122,168.7354,191.4703,0,U,39444,999,68109,.46531E-3,.7529E-4,0
UWE-3,2013-066AG,2026-06-25T20:06:32.092416,14.97092153,.00468075,97.8708,132.9703,291.8607,67.7640,0,U,39446,999,67887,.38106409E-3,.4431E-4,0
UNISAT-6,2014-033C,2026-06-26T16:19:50.106720,14.88289087,.0045701,97.7883,330.2257,38.7415,321.7064,0,U,40012,999,64757,.26905E-3,.2478E-4,0
DUCHIFAT-1,2014-033M,2026-06-26T14:38:02.171040,15.66536146,.0001317,98.0448,238.1065,100.0937,260.0470,0,U,40021,999,65722,.10572E-2,.111371E-2,0
QB50P1,2014-033R,2026-06-26T05:52:29.444736,15.18390211,.0008742,98.0964,189.0261,183.1826,176.9352,0,U,40025,999,65440,.4834E-3,.9878E-4,0
LILACSAT-2,2015-049K,2026-06-26T18:03:49.819680,15.51748827,.0006419,97.4638,214.9588,202.9560,157.1406,0,U,40908,999,59723,.29262E-3,.17374E-3,0
FOX-1A (AO-85),2015-058D,2026-06-26T14:36:36.038016,14.91006682,.0131014,64.7749,249.7037,52.9293,308.3713,0,U,40967,999,11497,.19593E-3,.2109E-4,0
CAS-2T & KS-1Q,2016-066G,2026-06-26T17:30:02.265696,14.44723586,.0342905,98.3821,253.3565,100.6280,263.3719,0,U,41847,999,50617,.22505E-3,.156E-4,0
RADFXSAT (FOX-1B),2017-073E,2026-06-25T14:36:06.350976,15.12826697,.01486298,97.4699,43.6511,299.9037,58.7499,0,U,43017,999,46666,.35687408E-3,.8156E-4,0
DIWATA-2B,2018-084H,2026-06-26T16:56:47.847840,15.00493099,.0013043,98.1205,14.3297,140.2716,219.9465,0,U,43678,999,41764,.21902E-3,.2698E-4,0
ES'HAIL 2,2018-090A,2026-06-26T17:48:33.812064,1.00270519,.0002132,0.0090,302.7911,185.1403,79.8583,0,U,43700,999,2777,0,.156E-5,0
FOX-1CLIFF (AO-95),2018-099N,2026-06-26T17:05:04.607232,15.26902666,.0007136,97.4386,237.9235,319.9595,40.1117,0,U,43770,999,41467,.43041E-3,.11312E-3,0
ITASAT,2018-099AE,2026-06-26T16:54:35.731008,15.19167716,.0011181,97.4027,229.0263,324.7706,35.2789,0,U,43786,999,41435,.33E-3,.6883E-4,0
JY1SAT (JO-97),2018-099AX,2026-06-26T16:27:58.635648,15.33941851,.000507,97.4134,240.5542,220.1283,139.9586,0,U,43803,999,41508,.50103E-3,.16394E-3,0
UWE-4,2018-111E,2026-06-26T17:27:19.800000,15.46698886,.0004426,97.5846,106.5606,294.0658,66.0127,0,U,43880,999,41225,.6498E-3,.32472E-3,0
TIANYAN 01,2019-093C,2026-06-26T17:42:19.327680,14.86531677,.0014902,97.7532,249.7369,58.4682,301.7987,0,U,44881,999,35283,.64691E-4,.52E-5,0
RS-44 & BREEZE-KM R/B,2019-096E,2026-06-26T16:47:30.712992,12.79749029,.0218469,82.5225,333.3830,122.0146,240.2387,0,U,44909,999,30356,.17228E-4,.17E-6,0
SALSAT,2020-068K,2026-06-26T11:58:12.031104,15.29924136,.000781,97.8850,181.1309,268.2261,91.8084,0,U,46495,999,31678,.27079E-3,.7768E-4,0
XW-3 (CAS-9),2021-131B,2026-06-26T18:33:30.660192,14.41366041,.000536,98.4983,270.1111,74.1740,286.0039,0,U,50466,999,23649,.18039E-3,.54E-5,0
GREENCUBE (IO-117),2022-080E,2026-06-26T16:16:29.555040,6.42583228,.0008985,70.1443,294.9444,287.5436,72.4241,0,U,53109,999,9267,0,-.3E-7,0
UMKA 1 (RS40S),2023-091G,2026-06-26T16:47:46.912128,15.20922858,.00143,97.5053,236.3605,88.3378,271.9496,0,U,57172,999,16545,.29213E-3,.6411E-4,0
CUBESX-HSE 3 (RS42S),2023-091N,2026-06-26T17:08:30.380064,15.31444889,.0011534,97.5095,243.4223,64.9547,295.2890,0,U,57178,999,16588,.4301E-3,.13016E-3,0
MONITOR-3 (RS58S),2023-091Q,2026-06-26T16:39:54.896832,15.28025135,.0012757,97.5086,241.2105,71.3902,288.8721,0,U,57180,999,16574,.37338E-3,.10158E-3,0
MONITOR-4 (RS57S),2023-091S,2026-06-26T14:34:42.079008,15.28107703,.0012735,97.5080,241.0947,71.8590,288.4035,0,U,57182,999,16573,.38339E-3,.10459E-3,0
MONITOR-2 (RS39S),2023-091U,2026-06-26T14:25:56.038656,15.18992701,.0012713,97.5073,235.8233,82.6971,277.5708,0,U,57184,999,16538,.23742E-3,.4908E-4,0
SVYATOBOR 1 (RS60S),2023-091X,2026-06-26T16:39:41.441760,15.26769067,.001052,97.5092,241.5640,65.8433,294.3904,0,U,57187,999,16576,.3175E-3,.8294E-4,0
VIZARD-METEO (RS38S),2023-091Z,2026-06-26T17:21:18.167616,15.36316531,.0007544,97.5095,247.4004,48.1357,312.0529,0,U,57189,999,16615,.47596E-3,.16802E-3,0
POLYTECH-UNIVERSE 3 (RS46S),2023-091AB,2026-06-26T16:38:08.522880,15.19199787,.0017075,97.5049,235.4188,96.7963,263.5215,0,U,57191,999,16539,.255E-3,.5317E-4,0
UTMN 2 (RS27S),2023-091AP,2026-06-26T17:26:21.943968,15.32274371,.0008635,97.5090,245.0805,54.8424,305.3626,0,U,57203,999,16600,.41816E-3,.12973E-3,0
