CUBEBUG-2 (LO-74)
1 39440U 13066AA  26177.77591205  .00004220  00000-0  39049-3 0  9991
2 39440  97.8903 126.7948 0057450 357.3533   2.7374 14.93836496678428
FUNCUBE-1 (AO-73)
1 39444U 13066AE  26177.66821197  .00007529  00000-0  46531-3 0  9998
2 39444  97.8272 149.3122 0036613 168.7354 191.4703 15.09595526681092
UWE-3
1 39446U 13066AG  26176.83787144  .00004431  00000-0  38106-3 0  9999
2 39446  97.8708 132.9703 0046808 291.8607  67.7640 14.97092153678878
UNISAT-6
1 40012U 14033C   26177.68044105  .00002478  00000-0  26905-3 0  9995
2 40012  97.7883 330.2257 0045701  38.7415 321.7064 14.88289087647575
DUCHIFAT-1
1 40021U 14033M   26177.60974735  .00111371  00000-0  10572-2 0  9993
2 40021  98.0448 238.1065 0001317 100.0937 260.0470 15.66536146657223
FUNCUBE-3 (EO-79)
1 40025U 14033R   26177.24478524  .00009878  00000-0  48340-3 0  9995
2 40025  98.0964 189.0261 0008742 183.1826 176.9352 15.18390211654409
LILACSAT-2
1 40908U 15049K   26177.75265995  .00017374  00000-0  29262-3 0  9997
2 40908  97.4638 214.9588 0006419 202.9560 157.1406 15.51748827597239
CAS-2T & KS-1Q
1 41847U 16066G   26177.72919289  .00001560  00000-0  22505-3 0  9992
2 41847  98.3821 253.3565 0342905 100.6280 263.3719 14.44723586506170
FOX-1B (AO-91)
1 43017U 17073E   26176.60840684  .00008156  00000-0  35687-3 0  9993
2 43017  97.4699  43.6511 0148630 299.9037  58.7499 15.12826697466669
FOX-1A (AO-85)
1 40967U 15058D   26177.60875044  .00002109  00000-0  19593-3 0  9994
2 40967  64.7749 249.7037 0131014  52.9293 308.3713 14.91006682114971
DIWATA-2B (PO-101)
1 43678U 18084H   26177.70610935  .00002698  00000-0  21902-3 0  9995
2 43678  98.1205  14.3297 0013043 140.2716 219.9465 15.00493099417641
ESHAIL-2
1 43700U 18090A   26177.74205801  .00000156  00000-0  00000+0 0  9993
2 43700   0.0090 302.7911 0002132 185.1403  79.8583  1.00270519 27776
ITASAT-1
1 43786U 18099AE  26177.70458022  .00006883  00000-0  33000-3 0  9990
2 43786  97.4027 229.0263 0011181 324.7706  35.2789 15.19167716414359
FOX-1CLIFF (AO-95)
1 43770U 18099N   26177.71185888  .00011312  00000-0  43041-3 0  9990
2 43770  97.4386 237.9235 0007136 319.9595  40.1117 15.26902666414678
JY1SAT (JO-97)
1 43803U 18099AX  26177.68609532  .00016394  00000-0  50103-3 0  9992
2 43803  97.4134 240.5542 0005070 220.1283 139.9586 15.33941851415089
UWE-4
1 43880U 18111E   26177.72731250  .00032472  00000-0  64980-3 0  9993
2 43880  97.5846 106.5606 0004426 294.0658  66.0127 15.46698886412255
CAS-6 (TO-108)
1 44881U 19093C   26177.73772370  .00000520  00000-0  64691-4 0  9993
2 44881  97.7532 249.7369 0014902  58.4682 301.7987 14.86531677352833
DOSAAF-85 (RS-44)
1 44909U 19096E   26177.69966103  .00000017  00000-0  17228-4 0  9996
2 44909  82.5225 333.3830 0218469 122.0146 240.2387 12.79749029303564
SALSAT (TUBSAT 22)
1 46495U 20068K   26177.49875036  .00007768  00000-0  27079-3 0  9995
2 46495  97.8850 181.1309 0007810 268.2261  91.8084 15.29924136316780
CAMSAT XW-3 (CAS-9)
1 50466U 21131B   26177.77327153  .00000540  00000-0  18039-3 0  9990
2 50466  98.4983 270.1111 0005360  74.1740 286.0039 14.41366041236496
ROBUSTA 1F (MTCUBE-2)
1 53109U 22080E   26177.67811985 -.00000003  00000-0  00000+0 0  9991
2 53109  70.1443 294.9444 0008985 287.5436  72.4241  6.42583228 92674
UMKA-1 (RS40S)
1 57172U 23091G   26177.69984852  .00006411  00000-0  29213-3 0  9993
2 57172  97.5053 236.3605 0014300  88.3378 271.9496 15.20922858165454
CUBESX-HSE-3 (RS42S)
1 57178U 23091N   26177.71424051  .00013016  00000-0  43010-3 0  9992
2 57178  97.5095 243.4223 0011534  64.9547 295.2890 15.31444889165884
MONITOR-3 (RS58S)
1 57180U 23091Q   26177.69438538  .00010158  00000-0  37338-3 0  9997
2 57180  97.5086 241.2105 0012757  71.3902 288.8721 15.28025135165748
MONITOR-4 (RS57S)
1 57182U 23091S   26177.60743147  .00010459  00000-0  38339-3 0  9991
2 57182  97.5080 241.0947 0012735  71.8590 288.4035 15.28107703165735
MONITOR-2 (RS39S)
1 57184U 23091U   26177.60134304  .00004908  00000-0  23742-3 0  9996
2 57184  97.5073 235.8233 0012713  82.6971 277.5708 15.18992701165383
SVYATOBOR-1 (RS60S)
1 57187U 23091X   26177.69422965  .00008294  00000-0  31750-3 0  9991
2 57187  97.5092 241.5640 0010520  65.8433 294.3904 15.26769067165766
VIZARD-METEO (RS38S)
1 57189U 23091Z   26177.72312694  .00016802  00000-0  47596-3 0  9993
2 57189  97.5095 247.4004 0007544  48.1357 312.0529 15.36316531166151
UTMN-2 (RS27S)
1 57203U 23091AP  26177.72664287  .00012973  00000-0  41816-3 0  9992
2 57203  97.5090 245.0805 0008635  54.8424 305.3626 15.32274371166005
POLYTECH UNIVERSE-3 (RS46S)
1 57191U 23091AB  26177.69315420  .00005317  00000-0  25500-3 0  9992
2 57191  97.5049 235.4188 0017075  96.7963 263.5215 15.19199787165395
